ONEWEB-0456             
1 51646U 22012AA  25092.14971525  .00000695  00000+0  19556-2 0  9998
2 51646  87.8806 124.1558 0001936  89.0339 271.1010 13.10373217152871
ONEWEB-0457             
1 51647U 22012AB  25091.82102500 -.00000172  00000+0 -52995-3 0  9999
2 51647  87.8819 124.2693 0001989 107.1163 253.0182 13.10377273151540
ONEWEB-0458             
1 51648U 22012AC  25091.84262839  .00000684  00000+0  19241-2 0  9996
2 51648  87.8800 124.2577 0002105  94.4511 265.6857 13.10374884151507
ONEWEB-0461             
1 51649U 22012AD  25091.96401173  .00000031  00000+0  46321-4 0  9993
2 51649  87.8999  93.7300 0001901  91.7411 268.3938 13.17651228155784
ONEWEB-0463             
1 51650U 22012AE  25092.24919477  .00000032  00000+0  49241-4 0  9993
2 51650  87.9004  93.7325 0002024  91.4373 268.6991 13.17651566156904
ONEWEB-0464             
1 51651U 22012AF  25091.83929633  .00001639  00000+0  46582-2 0  9990
2 51651  87.8821 124.2734 0002014  84.9255 275.2102 13.10383497151529
ONEWEB-0468             
1 51652U 22012AG  25092.15137607  .00000701  00000+0  19719-2 0  9990
2 51652  87.8816 124.2033 0001998  93.6414 266.4942 13.10373078152833
ONEWEB-0473             
1 51653U 22012AH  25091.83099761  .00000311  00000+0  85361-3 0  9997
2 51653  87.8820 124.2705 0002084  93.4574 266.6792 13.10376403151500
ONEWEB-0474             
1 51654U 22012AJ  25091.82268681 -.00000106  00000+0 -33879-3 0  9997
2 51654  87.8811 124.2425 0002141  89.4674 270.6698 13.10377172151492
ONEWEB-0475             
1 51655U 22012AK  25091.95724919 -.00000424  00000+0 -11265-2 0  9990
2 51655  87.9002  93.7706 0002710  82.7782 277.3657 13.17649311155583
ONEWEB-0490             
1 54113U 22138A   25091.88084116 -.00000288  00000+0 -75048-3 0  9999
2 54113  87.9236  32.6646 0001953  74.4881 285.6467 13.19725038118623
ONEWEB-0492             
1 54114U 22138B   25091.90611477  .00000097  00000+0  21063-3 0  9993
2 54114  87.9242  32.6781 0001791  73.4117 286.7212 13.19724901118631
ONEWEB-0495             
1 54115U 22138C   25091.80819352  .00000055  00000+0  10622-3 0  9998
2 54115  87.9242  32.7092 0002353  62.9112 297.2260 13.19726025118607
ONEWEB-0497             
1 54116U 22138D   25091.89664364  .00000056  00000+0  10872-3 0  9997
2 54116  87.9238  32.6670 0001930  75.7321 284.4026 13.19727412118607
ONEWEB-0499             
1 54117U 22138E   25091.87926466  .00000074  00000+0  15297-3 0  9996
2 54117  87.9241  32.6846 0002289  81.5842 278.5550 13.19728328118612
ONEWEB-0500             
1 54118U 22138F   25091.88241986  .00000066  00000+0  13345-3 0  9998
2 54118  87.9238  32.6713 0001817  78.1484 281.9853 13.19728197118621
ONEWEB-0501             
1 54119U 22138G   25091.83661043 -.00000261  00000+0 -68527-3 0  9995
2 54119  87.9237  32.6747 0002191  69.3669 290.7698 13.19724250119465
ONEWEB-0502             
1 54120U 22138H   25091.82240536  .00000072  00000+0  14778-3 0  9993
2 54120  87.9237  32.6628 0002176  75.7368 284.4007 13.19724886118610
ONEWEB-0503             
1 54121U 22138J   25091.88716603  .00000057  00000+0  10902-3 0  9991
2 54121  87.9235  32.6554 0002151  86.2620 273.8758 13.19724261118610
ONEWEB-0504             
1 54122U 22138K   25091.87452533  .00000102  00000+0  22243-3 0  9992
2 54122  87.9237  32.6705 0002264  77.5701 282.5685 13.19728646118627
ONEWEB-0505             
1 54123U 22138L   25091.87135815 -.00001209  00000+0 -30524-2 0  9995
2 54123  87.9235  32.6620 0002465  69.8221 290.3177 13.19730726118609
ONEWEB-0506             
1 54124U 22138M   25091.84608833  .00000096  00000+0  20622-3 0  9998
2 54124  87.9237  32.6638 0002053  75.5213 284.6147 13.19727862119464
ONEWEB-0507             
1 54125U 22138N   25091.86662493  .00000131  00000+0  29447-3 0  9997
2 54125  87.9245  32.7057 0002029  72.9454 287.1901 13.19724786118648
ONEWEB-0508             
1 54126U 22138P   25091.86346970  .00000147  00000+0  33456-3 0  9999
2 54126  87.9241  32.6914 0002072  67.3631 292.7721 13.19728656118629
ONEWEB-0509             
1 54127U 22138Q   25091.83819335  .00000059  00000+0  11451-3 0  9990
2 54127  87.9235  32.6640 0002025  76.6154 283.5204 13.19723873119463
ONEWEB-0510             
1 54128U 22138R   25091.77241923  .00000074  00000+0  14893-3 0  9996
2 54128  87.9335   2.3007 0001577  80.6116 279.5195 13.20769862121018
ONEWEB-0511             
1 54129U 22138S   25091.83503710  .00000051  00000+0  94555-4 0  9998
2 54129  87.9236  32.6696 0002168  84.6162 275.5218 13.19723883119493
ONEWEB-0512             
1 54130U 22138T   25091.90296460  .00000080  00000+0  16683-3 0  9996
2 54130  87.9245  32.6947 0002281  73.0401 287.0982 13.19725696118600
ONEWEB-0513             
1 54131U 22138U   25091.86549375  .00000120  00000+0  26559-3 0  9996
2 54131  87.9242  32.6858 0002365  76.9130 283.2267 13.20255845118489
ONEWEB-0514             
1 54132U 22138V   25091.84294083  .00000087  00000+0  18487-3 0  9991
2 54132  87.9239  32.6786 0001940  81.0621 279.0732 13.19724624119481
ONEWEB-0515             
1 54133U 22138W   25091.83554737  .00000087  00000+0  18191-3 0  9998
2 54133  87.9334   2.2650 0000849  81.2777 278.8453 13.20769802121919
ONEWEB-0516             
1 54134U 22138X   25091.81766416  .00000066  00000+0  13176-3 0  9991
2 54134  87.9246  32.7144 0001916  73.9149 286.2195 13.19724465118618
ONEWEB-0517             
1 54135U 22138Y   25092.10039512 -.00000168  00000+0 -45253-3 0  9991
2 54135  87.9238  32.6232 0002174  85.8316 274.3065 13.19725864119521
ONEWEB-0518             
1 54136U 22138Z   25091.89190502  .00000084  00000+0  17851-3 0  9992
2 54136  87.9244  32.6958 0002030  80.7244 279.4119 13.19724981118624
ONEWEB-0519             
1 54137U 22138AA  25091.84135858  .00000105  00000+0  22971-3 0  9994
2 54137  87.9237  32.6677 0002137  84.5084 275.6292 13.19724617119499
ONEWEB-0520             
1 54138U 22138AB  25091.87611182  .00000054  00000+0  10374-3 0  9994
2 54138  87.9238  32.6645 0002093  69.4023 290.7334 13.19726097118614
ONEWEB-0521             
1 54139U 22138AC  25091.90928169  .00000130  00000+0  29235-3 0  9996
2 54139  87.9236  32.6464 0001963  87.7471 272.3886 13.19725400118566
ONEWEB-0522             
1 54140U 22138AD  25091.88873441  .00000039  00000+0  65899-4 0  9992
2 54140  87.9236  32.6520 0001836  74.9691 285.1645 13.19728657118609
ONEWEB-0523             
1 54141U 22138AE  25091.97443379 -.00000078  00000+0 -22400-3 0  9991
2 54141  87.9336   2.2675 0001318 106.3921 253.7357 13.20768941121063
ONEWEB-0524             
1 54142U 22138AF  25091.81187099  .00000061  00000+0  11900-3 0  9992
2 54142  87.9336   2.3019 0000934  59.8449 300.2777 13.20769779121049
ONEWEB-0525             
1 54143U 22138AG  25091.83190499  .00001910  00000+0  47385-2 0  9992
2 54143  87.9238  32.6800 0002284  74.0159 286.1225 13.19722432119480
ONEWEB-0526             
1 54144U 22138AH  25091.86505571  .00000097  00000+0  21046-3 0  9999
2 54144  87.9240  32.6634 0001922  75.4228 284.7118 13.19727588118592
ONEWEB-0529             
1 54145U 22138AJ  25091.86820456  .00000115  00000+0  25402-3 0  9993
2 54145  87.9245  32.6990 0002037  72.9253 287.2103 13.19724346118615
ONEWEB-0531             
1 54146U 22138AK  25091.79766788  .00000082  00000+0  17069-3 0  9996
2 54146  87.9338   2.2983 0001052 100.7648 259.3603 13.20770301121048
ONEWEB-0535             
1 54147U 22138AL  25091.90137755  .00000042  00000+0  71695-4 0  9998
2 54147  87.9238  32.6525 0001694  85.1788 274.9538 13.19724228118636
ONEWEB-0536             
1 54148U 22138AM  25091.78503751 -.00000259  00000+0 -66782-3 0  9990
2 54148  87.9332   2.3471 0000790 100.4664 259.6558 13.20770320121032
ONEWEB-0527             
1 54642U 22166A   25091.93702363  .00000027  00000+0  34756-4 0  9995
2 54642  87.9312 331.9840 0001607  78.4967 281.6348 13.21823342113248
ONEWEB-0528             
1 54643U 22166B   25091.94333312 -.00000119  00000+0 -31989-3 0  9999
2 54643  87.9315 331.9795 0001735  75.7518 284.3809 13.21823566113256
ONEWEB-0539             
1 54644U 22166C   25091.90391461 -.00000019  00000+0 -78431-4 0  9998
2 54644  87.9293 331.9819 0001894  82.1583 277.9766 13.21824554113246
ONEWEB-0540             
1 54645U 22166D   25091.91021774 -.00000006  00000+0 -46978-4 0  9994
2 54645  87.9309 331.9987 0001968  82.2009 277.9348 13.21827858113232
ONEWEB-0542             
1 54646U 22166E   25091.91336575 -.00000027  00000+0 -97949-4 0  9990
2 54646  87.9294 331.9783 0002001  90.1641 269.9722 13.21822718113247
ONEWEB-0545             
1 54647U 22166F   25091.95597535 -.00000088  00000+0 -24437-3 0  9998
2 54647  87.9307 331.9736 0002285  87.5458 272.5937 13.21827654113210
ONEWEB-0580             
1 54648U 22166G   25091.92914154  .00000022  00000+0  21643-4 0  9999
2 54648  87.9312 331.9689 0001988  90.6683 269.4679 13.21824192113254
ONEWEB-0582             
1 54649U 22166H   25091.89602392  .00000000  00000+0 -30826-4 0  9994
2 54649  87.9293 331.9947 0002129  95.6182 264.5195 13.21823525113222
ONEWEB-0583             
1 54650U 22166J   25091.90706427  .00000011  00000+0 -57110-5 0  9990
2 54650  87.9307 331.9973 0001893  82.4963 277.6386 13.21824302113239
ONEWEB-0584             
1 54651U 22166K   25091.92755733 -.00000386  00000+0 -96653-3 0  9996
2 54651  87.9314 331.9735 0001916  94.4627 265.6726 13.21824622113229
ONEWEB-0585             
1 54652U 22166L   25091.95279438 -.00000042  00000+0 -13413-3 0  9995
2 54652  87.9304 331.9643 0001664  78.9588 281.1733 13.21823423113230
ONEWEB-0586             
1 54653U 22166M   25091.88972450  .00000028  00000+0  37200-4 0  9995
2 54653  87.9310 331.9930 0001906  84.8024 275.3328 13.21825946113223
ONEWEB-0587             
1 54654U 22166N   25091.89918229  .00000031  00000+0  44679-4 0  9993
2 54654  87.9306 331.9414 0001617  75.0351 285.0962 13.21825223113387
